CCSDS_OMM_VERS = 2.0
CREATION_DATE  = 
ORIGINATOR     = 

OBJECT_NAME    = HTV-X1
OBJECT_ID      = 2025-241A
CENTER_NAME    = EARTH
REF_FRAME      = TEME
TIME_SYSTEM    = UTC
MEAN_ELEMENT_THEORY = SGP/SGP4

EPOCH          = 2026-03-31T21:18:02.255904
MEAN_MOTION    = 15.32487751
ECCENTRICITY   = .0007216
INCLINATION    = 51.6377
RA_OF_ASC_NODE = 326.0819
ARG_OF_PERICENTER = 258.6594
MEAN_ANOMALY   = 101.3577

EPHEMERIS_TYPE = 0
CLASSIFICATION_TYPE = U
NORAD_CAT_ID   = 66174
ELEMENT_SET_NO = 999
REV_AT_EPOCH   = 2434
BSTAR          = .54325E-4
MEAN_MOTION_DOT = .1358E-4
MEAN_MOTION_DDOT = 0

CCSDS_OMM_VERS = 2.0
CREATION_DATE  = 
ORIGINATOR     = 

OBJECT_NAME    = SZ-21 MODULE
OBJECT_ID      = 2025-246C
CENTER_NAME    = EARTH
REF_FRAME      = TEME
TIME_SYSTEM    = UTC
MEAN_ELEMENT_THEORY = SGP/SGP4

EPOCH          = 2026-03-31T15:29:36.301920
MEAN_MOTION    = 15.70295966
ECCENTRICITY   = .0002346
INCLINATION    = 41.4739
RA_OF_ASC_NODE = 68.0304
ARG_OF_PERICENTER = 217.6333
MEAN_ANOMALY   = 142.4346

EPHEMERIS_TYPE = 0
CLASSIFICATION_TYPE = U
NORAD_CAT_ID   = 66515
ELEMENT_SET_NO = 999
REV_AT_EPOCH   = 2152
BSTAR          = .36184E-3
MEAN_MOTION_DOT = .45309E-3
MEAN_MOTION_DDOT = 0

CCSDS_OMM_VERS = 2.0
CREATION_DATE  = 
ORIGINATOR     = 

OBJECT_NAME    = SHENZHOU-22
OBJECT_ID      = 2025-272A
CENTER_NAME    = EARTH
REF_FRAME      = TEME
TIME_SYSTEM    = UTC
MEAN_ELEMENT_THEORY = SGP/SGP4

EPOCH          = 2026-03-31T20:22:04.014912
MEAN_MOTION    = 15.61775142
ECCENTRICITY   = .0003682
INCLINATION    = 41.4668
RA_OF_ASC_NODE = 73.2165
ARG_OF_PERICENTER = 84.3022
MEAN_ANOMALY   = 275.8236

EPHEMERIS_TYPE = 0
CLASSIFICATION_TYPE = U
NORAD_CAT_ID   = 66645
ELEMENT_SET_NO = 999
REV_AT_EPOCH   = 28133
BSTAR          = .31477E-3
MEAN_MOTION_DOT = .27797E-3
MEAN_MOTION_DDOT = 0

CCSDS_OMM_VERS = 2.0
CREATION_DATE  = 
ORIGINATOR     = 

OBJECT_NAME    = SOYUZ-MS 28
OBJECT_ID      = 2025-275A
CENTER_NAME    = EARTH
REF_FRAME      = TEME
TIME_SYSTEM    = UTC
MEAN_ELEMENT_THEORY = SGP/SGP4

EPOCH          = 2026-03-31T20:13:47.748864
MEAN_MOTION    = 15.48686199
ECCENTRICITY   = .000622
INCLINATION    = 51.6336
RA_OF_ASC_NODE = 322.8401
ARG_OF_PERICENTER = 256.5772
MEAN_ANOMALY   = 103.4524

EPHEMERIS_TYPE = 0
CLASSIFICATION_TYPE = U
NORAD_CAT_ID   = 66664
ELEMENT_SET_NO = 999
REV_AT_EPOCH   = 55984
BSTAR          = .20301E-3
MEAN_MOTION_DOT = .10633E-3
MEAN_MOTION_DDOT = 0

CCSDS_OMM_VERS = 2.0
CREATION_DATE  = 
ORIGINATOR     = 

OBJECT_NAME    = DUPLEX
OBJECT_ID      = 1998-067XS
CENTER_NAME    = EARTH
REF_FRAME      = TEME
TIME_SYSTEM    = UTC
MEAN_ELEMENT_THEORY = SGP/SGP4

EPOCH          = 2026-03-31T08:17:26.189664
MEAN_MOTION    = 15.57674080
ECCENTRICITY   = .00030317
INCLINATION    = 51.6297
RA_OF_ASC_NODE = 321.0191
ARG_OF_PERICENTER = 212.0904
MEAN_ANOMALY   = 147.9904

EPHEMERIS_TYPE = 0
CLASSIFICATION_TYPE = U
NORAD_CAT_ID   = 66906
ELEMENT_SET_NO = 999
REV_AT_EPOCH   = 1850
BSTAR          = .41041416E-3
MEAN_MOTION_DOT = .30598E-3
MEAN_MOTION_DDOT = 0

CCSDS_OMM_VERS = 2.0
CREATION_DATE  = 
ORIGINATOR     = 

OBJECT_NAME    = ISS OBJECT XT
OBJECT_ID      = 1998-067XT
CENTER_NAME    = EARTH
REF_FRAME      = TEME
TIME_SYSTEM    = UTC
MEAN_ELEMENT_THEORY = SGP/SGP4

EPOCH          = 2026-03-30T23:48:34.422912
MEAN_MOTION    = 15.77474142
ECCENTRICITY   = .0006496
INCLINATION    = 51.6233
RA_OF_ASC_NODE = 316.3688
ARG_OF_PERICENTER = 218.8764
MEAN_ANOMALY   = 141.1770

EPHEMERIS_TYPE = 0
CLASSIFICATION_TYPE = U
NORAD_CAT_ID   = 66907
ELEMENT_SET_NO = 999
REV_AT_EPOCH   = 1853
BSTAR          = .15250225E-2
MEAN_MOTION_DOT = .26625E-2
MEAN_MOTION_DDOT = 0

CCSDS_OMM_VERS = 2.0
CREATION_DATE  = 
ORIGINATOR     = 

OBJECT_NAME    = ISS OBJECT XU
OBJECT_ID      = 1998-067XU
CENTER_NAME    = EARTH
REF_FRAME      = TEME
TIME_SYSTEM    = UTC
MEAN_ELEMENT_THEORY = SGP/SGP4

EPOCH          = 2026-03-31T20:59:19.272768
MEAN_MOTION    = 15.78203019
ECCENTRICITY   = .0006865
INCLINATION    = 51.6233
RA_OF_ASC_NODE = 311.7557
ARG_OF_PERICENTER = 224.5845
MEAN_ANOMALY   = 135.4604

EPHEMERIS_TYPE = 0
CLASSIFICATION_TYPE = U
NORAD_CAT_ID   = 66908
ELEMENT_SET_NO = 999
REV_AT_EPOCH   = 1867
BSTAR          = .14413E-2
MEAN_MOTION_DOT = .259788E-2
MEAN_MOTION_DDOT = 0

CCSDS_OMM_VERS = 2.0
CREATION_DATE  = 
ORIGINATOR     = 

OBJECT_NAME    = SILVERSAT
OBJECT_ID      = 1998-067XV
CENTER_NAME    = EARTH
REF_FRAME      = TEME
TIME_SYSTEM    = UTC
MEAN_ELEMENT_THEORY = SGP/SGP4

EPOCH          = 2026-03-30T23:56:13.358112
MEAN_MOTION    = 15.83552073
ECCENTRICITY   = .00076656
INCLINATION    = 51.6200
RA_OF_ASC_NODE = 314.8852
ARG_OF_PERICENTER = 225.3563
MEAN_ANOMALY   = 134.6816

EPHEMERIS_TYPE = 0
CLASSIFICATION_TYPE = U
NORAD_CAT_ID   = 66909
ELEMENT_SET_NO = 999
REV_AT_EPOCH   = 1855
BSTAR          = .17359302E-2
MEAN_MOTION_DOT = .407567E-2
MEAN_MOTION_DDOT = 0

CCSDS_OMM_VERS = 2.0
CREATION_DATE  = 
ORIGINATOR     = 

OBJECT_NAME    = ISS OBJECT XW
OBJECT_ID      = 1998-067XW
CENTER_NAME    = EARTH
REF_FRAME      = TEME
TIME_SYSTEM    = UTC
MEAN_ELEMENT_THEORY = SGP/SGP4

EPOCH          = 2026-03-31T21:20:08.183904
MEAN_MOTION    = 15.76237796
ECCENTRICITY   = .0006882
INCLINATION    = 51.6213
RA_OF_ASC_NODE = 311.8494
ARG_OF_PERICENTER = 221.1915
MEAN_ANOMALY   = 138.8566

EPHEMERIS_TYPE = 0
CLASSIFICATION_TYPE = U
NORAD_CAT_ID   = 66910
ELEMENT_SET_NO = 999
REV_AT_EPOCH   = 1867
BSTAR          = .12591E-2
MEAN_MOTION_DOT = .206554E-2
MEAN_MOTION_DDOT = 0

CCSDS_OMM_VERS = 2.0
CREATION_DATE  = 
ORIGINATOR     = 

OBJECT_NAME    = ISS OBJECT XX
OBJECT_ID      = 1998-067XX
CENTER_NAME    = EARTH
REF_FRAME      = TEME
TIME_SYSTEM    = UTC
MEAN_ELEMENT_THEORY = SGP/SGP4

EPOCH          = 2026-03-31T20:54:36.817344
MEAN_MOTION    = 15.92173368
ECCENTRICITY   = .0009955
INCLINATION    = 51.6169
RA_OF_ASC_NODE = 308.6766
ARG_OF_PERICENTER = 236.6927
MEAN_ANOMALY   = 123.3127

EPHEMERIS_TYPE = 0
CLASSIFICATION_TYPE = U
NORAD_CAT_ID   = 66911
ELEMENT_SET_NO = 999
REV_AT_EPOCH   = 1870
BSTAR          = .17627E-2
MEAN_MOTION_DOT = .60442E-2
MEAN_MOTION_DDOT = .15627E-3

CCSDS_OMM_VERS = 2.0
CREATION_DATE  = 
ORIGINATOR     = 

OBJECT_NAME    = ISS OBJECT XY
OBJECT_ID      = 1998-067XY
CENTER_NAME    = EARTH
REF_FRAME      = TEME
TIME_SYSTEM    = UTC
MEAN_ELEMENT_THEORY = SGP/SGP4

EPOCH          = 2026-03-31T15:54:28.777248
MEAN_MOTION    = 15.68327986
ECCENTRICITY   = .0004573
INCLINATION    = 51.6260
RA_OF_ASC_NODE = 315.6247
ARG_OF_PERICENTER = 218.0977
MEAN_ANOMALY   = 141.9696

EPHEMERIS_TYPE = 0
CLASSIFICATION_TYPE = U
NORAD_CAT_ID   = 66912
ELEMENT_SET_NO = 999
REV_AT_EPOCH   = 1859
BSTAR          = .1054E-2
MEAN_MOTION_DOT = .122078E-2
MEAN_MOTION_DDOT = 0

CCSDS_OMM_VERS = 2.0
CREATION_DATE  = 
ORIGINATOR     = 

OBJECT_NAME    = KNACKSAT-2
OBJECT_ID      = 1998-067XZ
CENTER_NAME    = EARTH
REF_FRAME      = TEME
TIME_SYSTEM    = UTC
MEAN_ELEMENT_THEORY = SGP/SGP4

EPOCH          = 2026-03-31T16:10:54.220224
MEAN_MOTION    = 15.53694167
ECCENTRICITY   = .0010228
INCLINATION    = 51.6317
RA_OF_ASC_NODE = 322.4656
ARG_OF_PERICENTER = 266.1257
MEAN_ANOMALY   = 93.8564

EPHEMERIS_TYPE = 0
CLASSIFICATION_TYPE = U
NORAD_CAT_ID   = 67683
ELEMENT_SET_NO = 999
REV_AT_EPOCH   = 820
BSTAR          = .69855E-3
MEAN_MOTION_DOT = .45389E-3
MEAN_MOTION_DDOT = 0

