HTV-X1                  
1 66174U 25241A   26090.88752611  .00001358  00000+0  54325-4 0  9992
2 66174  51.6377 326.0819 0007216 258.6594 101.3577 15.32487751 24349
SZ-21 MODULE            
1 66515U 25246C   26090.64555905  .00045309  00000+0  36184-3 0  9993
2 66515  41.4739  68.0304 0002346 217.6333 142.4346 15.70295966 21528
SHENZHOU-22             
1 66645U 25272A   26090.84865758  .00027797  00000+0  31477-3 0  9999
2 66645  41.4668  73.2165 0003682  84.3022 275.8236 15.61775142281339
SOYUZ-MS 28             
1 66664U 25275A   26090.84291376  .00010633  00000+0  20301-3 0  9997
2 66664  51.6336 322.8401 0006220 256.5772 103.4524 15.48686199559845
DUPLEX                  
1 66906U 98067XS  26090.34544201  .00030598  00000+0  41041-3 0  9994
2 66906  51.6297 321.0191 0003031 212.0904 147.9904 15.57674080 18502
ISS OBJECT XT           
1 66907U 98067XT  26089.99206508  .00266250  00000+0  15250-2 0  9997
2 66907  51.6233 316.3688 0006496 218.8764 141.1770 15.77474142 18536
ISS OBJECT XU           
1 66908U 98067XU  26090.87452862  .00259788  00000+0  14413-2 0  9991
2 66908  51.6233 311.7557 0006865 224.5845 135.4604 15.78203019 18676
SILVERSAT               
1 66909U 98067XV  26089.99737683  .00407567  00000+0  17359-2 0  9992
2 66909  51.6200 314.8852 0007665 225.3563 134.6816 15.83552073 18554
ISS OBJECT XW           
1 66910U 98067XW  26090.88898361  .00206554  00000+0  12591-2 0  9991
2 66910  51.6213 311.8494 0006882 221.1915 138.8566 15.76237796 18679
ISS OBJECT XX           
1 66911U 98067XX  26090.87125946  .00604420  15627-3  17627-2 0  9997
2 66911  51.6169 308.6766 0009955 236.6927 123.3127 15.92173368 18702
ISS OBJECT XY           
1 66912U 98067XY  26090.66283307  .00122078  00000+0  10540-2 0  9997
2 66912  51.6260 315.6247 0004573 218.0977 141.9696 15.68327986 18591
KNACKSAT-2              
1 67683U 98067XZ  26090.67423866  .00045389  00000+0  69855-3 0  9993
2 67683  51.6317 322.4656 0010228 266.1257  93.8564 15.53694167  8207
